[{"OBJECT_NAME":"STARLINK-5797","OBJECT_ID":"2023-028AV","EPOCH":"2026-03-09T18:03:55.345824","MEAN_MOTION":14.98326824,"ECCENTRICITY":0.00032648,"INCLINATION":70.0015,"RA_OF_ASC_NODE":204.3748,"ARG_OF_PERICENTER":274.06,"MEAN_ANOMALY":86.0186,"EPHEMERIS_TYPE":0,"CLASSIFICATION_TYPE":"U","NORAD_CAT_ID":55784,"ELEMENT_SET_NO":999,"REV_AT_EPOCH":16703,"BSTAR":-0.00010478764,"MEAN_MOTION_DOT":-1.343e-5,"MEAN_MOTION_DDOT":0},{"OBJECT_NAME":"ELECTRON KICK STAGE R\/B","OBJECT_ID":"2022-079C","EPOCH":"2026-03-09T00:14:21.573024","MEAN_MOTION":14.9984674,"ECCENTRICITY":0.00071286,"INCLINATION":40.0139,"RA_OF_ASC_NODE":71.1393,"ARG_OF_PERICENTER":266.8926,"MEAN_ANOMALY":93.1051,"EPHEMERIS_TYPE":0,"CLASSIFICATION_TYPE":"U","NORAD_CAT_ID":53104,"ELEMENT_SET_NO":999,"REV_AT_EPOCH":10032,"BSTAR":0.00071833394,"MEAN_MOTION_DOT":8.922e-5,"MEAN_MOTION_DDOT":0}]
